start=new Date('2021-11-20T00:00:00.000Z').valueOf();
sats=[{"NORAD_CAT_ID":"47147","SEMIMAJOR_AXIS":"6925.362","TIME_SYSTEM":"UTC","ELEMENT_SET_NO":"999","APOAPSIS":"548.650","CLASSIFICATION_TYPE":"U","OBJECT_NAME":"STARLINK-1860","MEAN_MOTION_DOT":"0.00001011","RA_OF_ASC_NODE":"154.8329","ARG_OF_PERICENTER":"68.4546","OBJECT_ID":"2020-088AB","FILE":"3219209","REV_AT_EPOCH":"5503","BSTAR":"0.00008678500000","EPHEMERIS_TYPE":"0","LAUNCH_DATE":"2020-11-25","COUNTRY_CODE":"US","MEAN_ANOMALY":"291.6662","CENTER_NAME":"EARTH","TLE_LINE1":"1 47147U 20088AB  21323.53140985  .00001011  00000-0  86785-4 0  9998","SITE":"AFETR","INCLINATION":"53.0535","TLE_LINE2":"2 47147  53.0535 154.8329 0002054  68.4546 291.6662 15.06395595 55035","PERIAPSIS":"545.805","RCS_SIZE":"LARGE","DECAY_DATE":null,"ECCENTRICITY":"0.00020540","MEAN_ELEMENT_THEORY":"SGP4","MEAN_MOTION":"15.06395595","REF_FRAME":"TEME","OBJECT_TYPE":"PAYLOAD","EPOCH":"2021-11-19T12:45:13.811040","MEAN_MOTION_DDOT":"0.0000000000000","PERIOD":"95.592","GP_ID":"190074341"},{"RA_OF_ASC_NODE":"144.9337","MEAN_MOTION_DOT":"0.00000236","CLASSIFICATION_TYPE":"U","APOAPSIS":"548.467","OBJECT_NAME":"STARLINK-1861","ELEMENT_SET_NO":"999","TIME_SYSTEM":"UTC","SEMIMAJOR_AXIS":"6925.374","NORAD_CAT_ID":"47148","SITE":"AFETR","TLE_LINE1":"1 47148U 20088AC  21323.50652715  .00000236  00000-0  34731-4 0  9997","INCLINATION":"53.0555","CENTER_NAME":"EARTH","LAUNCH_DATE":"2020-11-25","COUNTRY_CODE":"US","MEAN_ANOMALY":"278.1266","EPHEMERIS_TYPE":"0","BSTAR":"0.00003473100000","OBJECT_ID":"2020-088AC","ARG_OF_PERICENTER":"81.9923","REV_AT_EPOCH":"5541","FILE":"3219097","DECAY_DATE":null,"RCS_SIZE":"LARGE","TLE_LINE2":"2 47148  53.0555 144.9337 0001772  81.9923 278.1266 15.06391588 55412","PERIAPSIS":"546.012","PERIOD":"95.593","GP_ID":"190050089","OBJECT_TYPE":"PAYLOAD","MEAN_ELEMENT_THEORY":"SGP4","MEAN_MOTION":"15.06391588","REF_FRAME":"TEME","MEAN_MOTION_DDOT":"0.0000000000000","EPOCH":"2021-11-19T12:09:23.945760","ECCENTRICITY":"0.00017720"},{"CENTER_NAME":"EARTH","INCLINATION":"53.0524","SITE":"AFETR","TLE_LINE1":"1 47149U 20088AD  21323.53508399 -.00000238  00000-0  29091-5 0  9996","REV_AT_EPOCH":"5576","FILE":"3219209","OBJECT_ID":"2020-088AD","ARG_OF_PERICENTER":"80.2863","LAUNCH_DATE":"2020-11-25","COUNTRY_CODE":"US","MEAN_ANOMALY":"279.8358","EPHEMERIS_TYPE":"0","BSTAR":"0.00000290910000","OBJECT_NAME":"STARLINK-1862","APOAPSIS":"548.616","CLASSIFICATION_TYPE":"U","RA_OF_ASC_NODE":"154.8115","MEAN_MOTION_DOT":"-0.00000238","SEMIMAJOR_AXIS":"6925.326","NORAD_CAT_ID":"47149","ELEMENT_SET_NO":"999","TIME_SYSTEM":"UTC","MEAN_MOTION_DDOT":"0.0000000000000","EPOCH":"2021-11-19T12:50:31.256736","OBJECT_TYPE":"PAYLOAD","REF_FRAME":"TEME","MEAN_MOTION":"15.06407446","MEAN_ELEMENT_THEORY":"SGP4","GP_ID":"190075843","PERIOD":"95.592","ECCENTRICITY":"0.00020580","RCS_SIZE":"LARGE","DECAY_DATE":null,"PERIAPSIS":"545.766","TLE_LINE2":"2 47149  53.0524 154.8115 0002058  80.2863 279.8358 15.06407446 55765"},{"RCS_SIZE":"LARGE","DECAY_DATE":null,"TLE_LINE2":"2 47150  53.0532 144.8401 0001653  82.5091 277.6086 15.06391165 55170","PERIAPSIS":"546.096","MEAN_MOTION_DDOT":"0.0000000000000","EPOCH":"2021-11-19T12:41:14.356032","OBJECT_TYPE":"PAYLOAD","REF_FRAME":"TEME","MEAN_MOTION":"15.06391165","MEAN_ELEMENT_THEORY":"SGP4","GP_ID":"190074590","PERIOD":"95.593","ECCENTRICITY":"0.00016530","OBJECT_NAME":"STARLINK-1863","CLASSIFICATION_TYPE":"U","APOAPSIS":"548.385","RA_OF_ASC_NODE":"144.8401","MEAN_MOTION_DOT":"-0.00001054","NORAD_CAT_ID":"47150","SEMIMAJOR_AXIS":"6925.376","ELEMENT_SET_NO":"999","TIME_SYSTEM":"UTC","CENTER_NAME":"EARTH","INCLINATION":"53.0532","SITE":"AFETR","TLE_LINE1":"1 47150U 20088AE  21323.52863838 -.00001054  00000-0 -51887-4 0  9994","REV_AT_EPOCH":"5517","FILE":"3219209","OBJECT_ID":"2020-088AE","ARG_OF_PERICENTER":"82.5091","MEAN_ANOMALY":"277.6086","LAUNCH_DATE":"2020-11-25","COUNTRY_CODE":"US","EPHEMERIS_TYPE":"0","BSTAR":"-0.00005188700000"},{"OBJECT_NAME":"STARLINK-1864","APOAPSIS":"548.447","CLASSIFICATION_TYPE":"U","MEAN_MOTION_DOT":"0.00001314","RA_OF_ASC_NODE":"154.8376","SEMIMAJOR_AXIS":"6925.339","NORAD_CAT_ID":"47151","TIME_SYSTEM":"UTC","ELEMENT_SET_NO":"999","CENTER_NAME":"EARTH","INCLINATION":"53.0542","TLE_LINE1":"1 47151U 20088AF  21323.52770897  .00001314  00000-0  10709-3 0  9991","SITE":"AFETR","FILE":"3219209","REV_AT_EPOCH":"5502","ARG_OF_PERICENTER":"80.7343","OBJECT_ID":"2020-088AF","BSTAR":"0.00010709000000","EPHEMERIS_TYPE":"0","MEAN_ANOMALY":"279.3849","LAUNCH_DATE":"2020-11-25","COUNTRY_CODE":"US","RCS_SIZE":"LARGE","DECAY_DATE":null,"PERIAPSIS":"545.960","TLE_LINE2":"2 47151  53.0542 154.8376 0001796  80.7343 279.3849 15.06403251 55022","EPOCH":"2021-11-19T12:39:54.055008","MEAN_MOTION_DDOT":"0.0000000000000","MEAN_MOTION":"15.06403251","REF_FRAME":"TEME","MEAN_ELEMENT_THEORY":"SGP4","OBJECT_TYPE":"PAYLOAD","GP_ID":"190074841","PERIOD":"95.592","ECCENTRICITY":"0.00017960"},{"ECCENTRICITY":"0.00017150","PERIOD":"95.592","GP_ID":"190050496","OBJECT_TYPE":"PAYLOAD","MEAN_MOTION":"15.06404273","REF_FRAME":"TEME","MEAN_ELEMENT_THEORY":"SGP4","MEAN_MOTION_DDOT":"0.0000000000000","EPOCH":"2021-11-19T12:18:41.176512","TLE_LINE2":"2 47152  53.0541 154.9154 0001715  81.9792 278.1392 15.06404273 55271","PERIAPSIS":"546.013","DECAY_DATE":null,"RCS_SIZE":"LARGE","MEAN_ANOMALY":"278.1392","LAUNCH_DATE":"2020-11-25","COUNTRY_CODE":"US","EPHEMERIS_TYPE":"0","BSTAR":"0.00010850000000","OBJECT_ID":"2020-088AG","ARG_OF_PERICENTER":"81.9792","REV_AT_EPOCH":"5527","FILE":"3219104","SITE":"AFETR","TLE_LINE1":"1 47152U 20088AG  21323.51297658  .00001335  00000-0  10850-3 0  9990","INCLINATION":"53.0541","CENTER_NAME":"EARTH","ELEMENT_SET_NO":"999","TIME_SYSTEM":"UTC","SEMIMAJOR_AXIS":"6925.335","NORAD_CAT_ID":"47152","RA_OF_ASC_NODE":"154.9154","MEAN_MOTION_DOT":"0.00001335","CLASSIFICATION_TYPE":"U","APOAPSIS":"548.388","OBJECT_NAME":"STARLINK-1866"},{"TIME_SYSTEM":"UTC","ELEMENT_SET_NO":"999","SEMIMAJOR_AXIS":"6925.383","NORAD_CAT_ID":"47153","MEAN_MOTION_DOT":"0.00001049","RA_OF_ASC_NODE":"160.9188","CLASSIFICATION_TYPE":"U","APOAPSIS":"548.656","OBJECT_NAME":"STARLINK-1867","BSTAR":"0.00008937000000","EPHEMERIS_TYPE":"0","LAUNCH_DATE":"2020-11-25","MEAN_ANOMALY":"283.0122","COUNTRY_CODE":"US","ARG_OF_PERICENTER":"77.1094","OBJECT_ID":"2020-088AH","FILE":"3219209","REV_AT_EPOCH":"5492","TLE_LINE1":"1 47153U 20088AH  21323.28857174  .00001049  00000-0  89370-4 0  9996","SITE":"AFETR","INCLINATION":"53.0533","CENTER_NAME":"EARTH","TLE_LINE2":"2 47153  53.0533 160.9188 0002034  77.1094 283.0122 15.06388845 54927","PERIAPSIS":"545.839","DECAY_DATE":null,"RCS_SIZE":"LARGE","ECCENTRICITY":"0.00020340","PERIOD":"95.593","GP_ID":"190075344","REF_FRAME":"TEME","MEAN_MOTION":"15.06388845","MEAN_ELEMENT_THEORY":"SGP4","OBJECT_TYPE":"PAYLOAD","EPOCH":"2021-11-19T06:55:32.598336","MEAN_MOTION_DDOT":"0.0000000000000"},{"ECCENTRICITY":"0.00020020","MEAN_MOTION":"15.06395929","MEAN_ELEMENT_THEORY":"SGP4","REF_FRAME":"TEME","OBJECT_TYPE":"PAYLOAD","EPOCH":"2021-11-19T11:37:32.797632","MEAN_MOTION_DDOT":"0.0000000000000","PERIOD":"95.592","GP_ID":"190074091","PERIAPSIS":"545.840","TLE_LINE2":"2 47154  53.0523 145.0407 0002002  80.3470 279.7745 15.06395929 55165","RCS_SIZE":"LARGE","DECAY_DATE":null,"ARG_OF_PERICENTER":"80.3470","OBJECT_ID":"2020-088AJ","FILE":"3219209","REV_AT_EPOCH":"5516","EPHEMERIS_TYPE":"0","BSTAR":"0.00006059000000","COUNTRY_CODE":"US","LAUNCH_DATE":"2020-11-25","MEAN_ANOMALY":"279.7745","CENTER_NAME":"EARTH","TLE_LINE1":"1 47154U 20088AJ  21323.48440738  .00000621  00000-0  60590-4 0  9991","SITE":"AFETR","INCLINATION":"53.0523","SEMIMAJOR_AXIS":"6925.361","NORAD_CAT_ID":"47154","TIME_SYSTEM":"UTC","ELEMENT_SET_NO":"999","APOAPSIS":"548.612","CLASSIFICATION_TYPE":"U","OBJECT_NAME":"STARLINK-1868","MEAN_MOTION_DOT":"0.00000621","RA_OF_ASC_NODE":"145.0407"},{"EPOCH":"2021-11-18T23:43:39.210528","MEAN_MOTION_DDOT":"0.0000000000000","MEAN_ELEMENT_THEORY":"SGP4","MEAN_MOTION":"15.06392872","REF_FRAME":"TEME","OBJECT_TYPE":"PAYLOAD","GP_ID":"190074342","PERIOD":"95.593","ECCENTRICITY":"0.00017020","RCS_SIZE":"LARGE","DECAY_DATE":null,"TLE_LINE2":"2 47155  53.0528 167.2522 0001702  87.2251 272.8933 15.06392872 54801","PERIAPSIS":"546.057","CENTER_NAME":"EARTH","INCLINATION":"53.0528","TLE_LINE1":"1 47155U 20088AK  21322.98864827 -.00000629  00000-0 -23333-4 0  9999","SITE":"AFETR","FILE":"3219209","REV_AT_EPOCH":"5480","ARG_OF_PERICENTER":"87.2251","OBJECT_ID":"2020-088AK","EPHEMERIS_TYPE":"0","BSTAR":"-0.00002333300000","MEAN_ANOMALY":"272.8933","LAUNCH_DATE":"2020-11-25","COUNTRY_CODE":"US","OBJECT_NAME":"STARLINK-1869","APOAPSIS":"548.414","CLASSIFICATION_TYPE":"U","MEAN_MOTION_DOT":"-0.00000629","RA_OF_ASC_NODE":"167.2522","SEMIMAJOR_AXIS":"6925.370","NORAD_CAT_ID":"47155","TIME_SYSTEM":"UTC","ELEMENT_SET_NO":"999"},{"DECAY_DATE":null,"RCS_SIZE":"LARGE","TLE_LINE2":"2 47156  53.0555  81.5570 0002204 357.3380   2.7620 15.59231675 56058","PERIAPSIS":"388.390","PERIOD":"92.353","GP_ID":"190075094","REF_FRAME":"TEME","MEAN_MOTION":"15.59231675","MEAN_ELEMENT_THEORY":"SGP4","OBJECT_TYPE":"PAYLOAD","EPOCH":"2021-11-19T09:04:17.258592","MEAN_MOTION_DDOT":"0.0000000000000","ECCENTRICITY":"0.00022040","MEAN_MOTION_DOT":"0.00015652","RA_OF_ASC_NODE":"81.5570","CLASSIFICATION_TYPE":"U","APOAPSIS":"391.373","OBJECT_NAME":"STARLINK-1870","TIME_SYSTEM":"UTC","ELEMENT_SET_NO":"999","SEMIMAJOR_AXIS":"6768.017","NORAD_CAT_ID":"47156","TLE_LINE1":"1 47156U 20088AL  21323.37797753  .00015652  00000-0  20177-3 0  9999","SITE":"AFETR","INCLINATION":"53.0555","CENTER_NAME":"EARTH","BSTAR":"0.00020177000000","EPHEMERIS_TYPE":"0","LAUNCH_DATE":"2020-11-25","COUNTRY_CODE":"US","MEAN_ANOMALY":"2.7620","ARG_OF_PERICENTER":"357.3380","OBJECT_ID":"2020-088AL","FILE":"3219209","REV_AT_EPOCH":"5605"}];
